[Satellite]
VERSION=1.1
NAME=FENGYUN 4A
NICKNAME=FENGYUN 4A
TLE1=1 41882U 16077A   22342.57872139 -.00000315  00000+0  00000+0 0  9997
TLE2=2 41882   0.0500 312.6178 0005495  90.7501 346.8243  1.00278307 22083
STATUS=0
